STARLINK-32700          
1 62311U 24239L   26068.63265652  .00033323  00000+0  11327-2 0  9999
2 62311  53.1610 181.5169 0001212  59.4537 300.6583 15.30183799 69546
TEVEL2-6                
1 63215U 25052F   26068.64958975  .00021046  00000+0  70909-3 0  9996
2 63215  97.4016 325.0381 0004769  95.6604 264.5181 15.30760889 54861
